0 COSMOS 2411 (GLONASS)
1 28509U 04053B   13282.00711862  .00000028  00000-0  10000-3 0  4491
2 28509 063.2089 225.1324 0005211 182.1857 293.5292 02.13100640 68377
0 COSMOS 2411 (GLONASS)
1 28509U 04053B   13283.41751624  .00000019  00000-0  10000-3 0  4509
2 28509 063.2085 225.0820 0005206 181.8935 295.8289 02.13100646 68401
0 COSMOS 2411 (GLONASS)
1 28509U 04053B   13286.03216147 -.00000016  00000-0  10000-3 0  4526
2 28509 063.2081 224.9883 0005149 180.5706 143.0149 02.13100635 68454
0 COSMOS 2411 (GLONASS)
1 28509U 04053B   13287.07812995 -.00000030  00000-0  10000-3 0  4531
2 28509 063.2080 224.9509 0005138 180.3505 225.6651 02.13100635 68489
0 COSMOS 2411 (GLONASS)
1 28509U 04053B   13288.27934763 -.00000039  00000-0  10000-3 0  4542
2 28509 063.2076 224.9078 0005093 179.5803 067.9652 02.13100607 68506
0 COSMOS 2411 (GLONASS)
1 28509U 04053B   13289.69970069 -.00000040  00000-0  10000-3 0  4551
2 28509 063.2072 224.8572 0005088 179.0741 078.1154 02.13100594 68539
0 COSMOS 2411 (GLONASS)
1 28509U 04053B   13291.12176191 -.00000031  00000-0  10000-3 0  4567
2 28509 063.2069 224.8064 0005066 178.4470 089.6968 02.13100580 68567
0 COSMOS 2411 (GLONASS)
1 28509U 04053B   13292.21606700 -.00000020  00000-0  10000-3 0  4571
2 28509 063.2066 224.7673 0005054 177.9587 209.6969 02.13100577 68593
0 COSMOS 2411 (GLONASS)
1 28509U 04053B   13293.37298270 -.00000010  00000-0  10000-3 0  4588
2 28509 063.2064 224.7258 0005036 177.5113 017.6881 02.13100557 68612
0 COSMOS 2411 (GLONASS)
1 28509U 04053B   13294.42013537 -.00000003  00000-0  10000-3 0  4599
2 28509 063.2062 224.6884 0005022 177.3116 101.2260 02.13100550 68636
0 COSMOS 2411 (GLONASS)
1 28509U 04053B   13295.53806500 -.00000001  00000-0  10000-3 0  4602
2 28509 063.2059 224.6484 0005021 177.1032 239.0701 02.13100543 68667
